[
    {
        "Altitude(m)": 554778.563134449,
        "Argument of Periapsis(deg)": 0.006622991110713501,
        "Eccentricity": 0.0,
        "Inclination(deg)": 53.0,
        "Latitude(deg)": -3.6509014283577135,
        "Longitude(deg)": 41.48614794622195,
        "Mean Anomaly(deg)": -4.453807132422438,
        "RAAN(deg)": 144.99014336852804,
        "Satellite Name": "Starlink Shell 1 659",
        "Satellite Number": 659,
        "Semi-Major Axis(m)": 6931778.249405717,
        "Time(s)": 190
    },
    {
        "Altitude(m)": 554694.5591899006,
        "Argument of Periapsis(deg)": 0.0069715695902247375,
        "Eccentricity": 0.0,
        "Inclination(deg)": 53.0,
        "Latitude(deg)": -3.1475465928619135,
        "Longitude(deg)": 41.822785389476714,
        "Mean Anomaly(deg)": -3.8269759288656657,
        "RAAN(deg)": 144.98962459845055,
        "Satellite Name": "Starlink Shell 1 659",
        "Satellite Number": 659,
        "Semi-Major Axis(m)": 6931778.249405717,
        "Time(s)": 200
    },
    {
        "Altitude(m)": 554613.2768060684,
        "Argument of Periapsis(deg)": 0.007320148069735974,
        "Eccentricity": 0.0,
        "Inclination(deg)": 53.0,
        "Latitude(deg)": -2.6440387577389206,
        "Longitude(deg)": 42.15906875358146,
        "Mean Anomaly(deg)": -3.200144725309021,
        "RAAN(deg)": 144.98910582837308,
        "Satellite Name": "Starlink Shell 1 659",
        "Satellite Number": 659,
        "Semi-Major Axis(m)": 6931778.249405717,
        "Time(s)": 210
    },
    {
        "Altitude(m)": 554534.7317233115,
        "Argument of Periapsis(deg)": 0.007668726549247212,
        "Eccentricity": 0.0,
        "Inclination(deg)": 53.0,
        "Latitude(deg)": -2.1404009873732726,
        "Longitude(deg)": 42.49505594658797,
        "Mean Anomaly(deg)": -2.5733135217523513,
        "RAAN(deg)": 144.98858705829562,
        "Satellite Name": "Starlink Shell 1 659",
        "Satellite Number": 659,
        "Semi-Major Axis(m)": 6931778.249405717,
        "Time(s)": 220
    },
    {
        "Altitude(m)": 554458.9383425514,
        "Argument of Periapsis(deg)": 0.00801730502875845,
        "Eccentricity": 0.0,
        "Inclination(deg)": 53.0,
        "Latitude(deg)": -1.6366562884194342,
        "Longitude(deg)": 42.830804749738554,
        "Mean Anomaly(deg)": -1.946482318195579,
        "RAAN(deg)": 144.98806828821813,
        "Satellite Name": "Starlink Shell 1 659",
        "Satellite Number": 659,
        "Semi-Major Axis(m)": 6931778.249405717,
        "Time(s)": 230
    },
    {
        "Altitude(m)": 554385.9097208432,
        "Argument of Periapsis(deg)": 0.008365883508269684,
        "Eccentricity": 0.0,
        "Inclination(deg)": 53.0,
        "Latitude(deg)": -1.1328276215937145,
        "Longitude(deg)": 43.166373347041585,
        "Mean Anomaly(deg)": -1.3196511146388326,
        "RAAN(deg)": 144.98754951814067,
        "Satellite Name": "Starlink Shell 1 659",
        "Satellite Number": 659,
        "Semi-Major Axis(m)": 6931778.249405717,
        "Time(s)": 240
    },
    {
        "Altitude(m)": 554315.657567613,
        "Argument of Periapsis(deg)": 0.008714461987780921,
        "Eccentricity": 0.0,
        "Inclination(deg)": 53.0,
        "Latitude(deg)": -0.6289379134224763,
        "Longitude(deg)": 43.50181934194691,
        "Mean Anomaly(deg)": -0.6928199110821878,
        "RAAN(deg)": 144.9870307480632,
        "Satellite Name": "Starlink Shell 1 659",
        "Satellite Number": 659,
        "Semi-Major Axis(m)": 6931778.249405717,
        "Time(s)": 250
    },
    {
        "Altitude(m)": 554248.1922415666,
        "Argument of Periapsis(deg)": 0.009063040467292158,
        "Eccentricity": 0.0,
        "Inclination(deg)": 53.0,
        "Latitude(deg)": -0.125010067954065,
        "Longitude(deg)": 43.83720028687558,
        "Mean Anomaly(deg)": -0.06598870752551762,
        "RAAN(deg)": 144.9865119779857,
        "Satellite Name": "Starlink Shell 1 659",
        "Satellite Number": 659,
        "Semi-Major Axis(m)": 6931778.249405717,
        "Time(s)": 260
    },
    {
        "Altitude(m)": 554183.5227482746,
        "Argument of Periapsis(deg)": 0.009411618946803396,
        "Eccentricity": 0.0,
        "Inclination(deg)": 53.0,
        "Latitude(deg)": 0.3789330215518649,
        "Longitude(deg)": 44.1725742127372,
        "Mean Anomaly(deg)": 0.5608424960312544,
        "RAAN(deg)": 144.98599320790825,
        "Satellite Name": "Starlink Shell 1 659",
        "Satellite Number": 659,
        "Semi-Major Axis(m)": 6931778.249405717,
        "Time(s)": 270
    },
    {
        "Altitude(m)": 554121.6567384428,
        "Argument of Periapsis(deg)": 0.009760197426314633,
        "Eccentricity": 0.0,
        "Inclination(deg)": 53.0,
        "Latitude(deg)": 0.8828684609446699,
        "Longitude(deg)": 44.50799864556968,
        "Mean Anomaly(deg)": 1.1876736995880008,
        "RAAN(deg)": 144.9854744378308,
        "Satellite Name": "Starlink Shell 1 659",
        "Satellite Number": 659,
        "Semi-Major Axis(m)": 6931778.249405717,
        "Time(s)": 280
    },
    {
        "Altitude(m)": 554062.6005068399,
        "Argument of Periapsis(deg)": 0.01010877590582587,
        "Eccentricity": 0.0,
        "Inclination(deg)": 53.0,
        "Latitude(deg)": 1.3867733435058893,
        "Longitude(deg)": 44.84353113605607,
        "Mean Anomaly(deg)": 1.814504903144671,
        "RAAN(deg)": 144.9849556677533,
        "Satellite Name": "Starlink Shell 1 659",
        "Satellite Number": 659,
        "Semi-Major Axis(m)": 6931778.249405717,
        "Time(s)": 290
    },
    {
        "Altitude(m)": 554006.3589919576,
        "Argument of Periapsis(deg)": 0.010457354385337106,
        "Eccentricity": 0.0,
        "Inclination(deg)": 53.0,
        "Latitude(deg)": 1.8906247382616987,
        "Longitude(deg)": 45.17922978905237,
        "Mean Anomaly(deg)": 2.4413361067014177,
        "RAAN(deg)": 144.98443689767583,
        "Satellite Name": "Starlink Shell 1 659",
        "Satellite Number": 659,
        "Semi-Major Axis(m)": 6931778.249405717,
        "Time(s)": 300
    },
    {
        "Altitude(m)": 553952.9357762631,
        "Argument of Periapsis(deg)": 0.010805932864848343,
        "Eccentricity": 0.0,
        "Inclination(deg)": 53.0,
        "Latitude(deg)": 2.3943996782705885,
        "Longitude(deg)": 45.51515228026022,
        "Mean Anomaly(deg)": 3.0681673102581644,
        "RAAN(deg)": 144.98391812759837,
        "Satellite Name": "Starlink Shell 1 659",
        "Satellite Number": 659,
        "Semi-Major Axis(m)": 6931778.249405717,
        "Time(s)": 310
    },
    {
        "Altitude(m)": 553902.333087214,
        "Argument of Periapsis(deg)": 0.01115451134435958,
        "Eccentricity": 0.0,
        "Inclination(deg)": 53.0,
        "Latitude(deg)": 2.8980751488804994,
        "Longitude(deg)": 45.85135638579978,
        "Mean Anomaly(deg)": 3.69499851381486,
        "RAAN(deg)": 144.98339935752088,
        "Satellite Name": "Starlink Shell 1 659",
        "Satellite Number": 659,
        "Semi-Major Axis(m)": 6931778.249405717,
        "Time(s)": 320
    },
    {
        "Altitude(m)": 553854.5517989019,
        "Argument of Periapsis(deg)": 0.011503089823870818,
        "Eccentricity": 0.0,
        "Inclination(deg)": 53.0,
        "Latitude(deg)": 3.401628075941377,
        "Longitude(deg)": 46.1879005118161,
        "Mean Anomaly(deg)": 4.321829717371606,
        "RAAN(deg)": 144.98288058744342,
        "Satellite Name": "Starlink Shell 1 659",
        "Satellite Number": 659,
        "Semi-Major Axis(m)": 6931778.249405717,
        "Time(s)": 330
    },
    {
        "Altitude(m)": 553809.5914343838,
        "Argument of Periapsis(deg)": 0.011851668303382053,
        "Eccentricity": 0.0,
        "Inclination(deg)": 53.0,
        "Latitude(deg)": 3.905035313959081,
        "Longitude(deg)": 46.5248427112528,
        "Mean Anomaly(deg)": 4.9486609209283525,
        "RAAN(deg)": 144.98236181736596,
        "Satellite Name": "Starlink Shell 1 659",
        "Satellite Number": 659,
        "Semi-Major Axis(m)": 6931778.249405717,
        "Time(s)": 340
    },
    {
        "Altitude(m)": 553767.4501686909,
        "Argument of Periapsis(deg)": 0.012200246782893292,
        "Eccentricity": 0.0,
        "Inclination(deg)": 53.0,
        "Latitude(deg)": 4.408273634184814,
        "Longitude(deg)": 46.86224121354744,
        "Mean Anomaly(deg)": 5.575492124485023,
        "RAAN(deg)": 144.98184304728846,
        "Satellite Name": "Starlink Shell 1 659",
        "Satellite Number": 659,
        "Semi-Major Axis(m)": 6931778.249405717,
        "Time(s)": 350
    },
    {
        "Altitude(m)": 553728.1248325218,
        "Argument of Periapsis(deg)": 0.012548825262404526,
        "Eccentricity": 0.0,
        "Inclination(deg)": 53.0,
        "Latitude(deg)": 4.911319712625792,
        "Longitude(deg)": 47.20015495438159,
        "Mean Anomaly(deg)": 6.202323328041667,
        "RAAN(deg)": 144.981324277211,
        "Satellite Name": "Starlink Shell 1 659",
        "Satellite Number": 659,
        "Semi-Major Axis(m)": 6931778.249405717,
        "Time(s)": 360
    },
    {
        "Altitude(m)": 553691.6109165729,
        "Argument of Periapsis(deg)": 0.012897403741915765,
        "Eccentricity": 0.0,
        "Inclination(deg)": 53.0,
        "Latitude(deg)": 5.414150117963575,
        "Longitude(deg)": 47.53864259261863,
        "Mean Anomaly(deg)": 6.82915453159844,
        "RAAN(deg)": 144.98080550713354,
        "Satellite Name": "Starlink Shell 1 659",
        "Satellite Number": 659,
        "Semi-Major Axis(m)": 6931778.249405717,
        "Time(s)": 370
    }
]